CCSDS_OEM_VERS = 1.0
CREATION_DATE  = 2017-05-11T11:15:16
ORIGINATOR     = GMAT USER

META_START
OBJECT_NAME          = MOPSSat_alt_35785_km_RAAN_90_066
OBJECT_ID            = SatId
CENTER_NAME          = Earth
REF_FRAME            = EME2000
TIME_SYSTEM          = UTC
START_TIME           = 2017-01-01T00:00:00.000
USEABLE_START_TIME   = 2017-01-01T00:00:00.000
USEABLE_STOP_TIME    = 2017-01-02T00:00:00.000
STOP_TIME            = 2017-01-02T00:00:00.000
INTERPOLATION        = Lagrange
INTERPOLATION_DEGREE = 7 
META_STOP


                                                                                   

2017-01-01T10:23:20.000  -1.695581595364540e+04  -3.864376479593037e+04   9.303636769811789e-01   2.812720349996203e+00  -1.235219908568750e+00  -3.114047507163732e-05
2017-01-01T10:23:30.000  -1.692768425612143e+04  -3.865610674505320e+04   9.300519189958785e-01   2.813619015758738e+00  -1.233169855435150e+00  -3.121112496928175e-05
2017-01-01T10:23:40.000  -1.689954357911272e+04  -3.866842819050932e+04   9.297394544554132e-01   2.814516188543578e+00  -1.231119149664297e+00  -3.128178545489812e-05
2017-01-01T10:23:50.000  -1.687139393758211e+04  -3.868072912576349e+04   9.294262832544394e-01   2.815411867877189e+00  -1.229067792344035e+00  -3.135245648515808e-05
2017-01-01T10:24:00.000  -1.684323534647760e+04  -3.869300954430037e+04   9.291124052878408e-01   2.816306053287486e+00  -1.227015784561115e+00  -3.142313801676355e-05
2017-01-01T10:24:10.000  -1.681506782081744e+04  -3.870526943958645e+04   9.287978204516535e-01   2.817198744301053e+00  -1.224963127407412e+00  -3.149383000623061e-05
2017-01-01T10:24:20.000  -1.678689137565776e+04  -3.871750880508599e+04   9.284825286427492e-01   2.818089940444310e+00  -1.222909821977549e+00  -3.156453240997495e-05
2017-01-01T10:24:30.000  -1.675870602607616e+04  -3.872972763426679e+04   9.281665297586205e-01   2.818979641243925e+00  -1.220855869367717e+00  -3.163524518434972e-05
2017-01-01T10:24:40.000  -1.673051178713809e+04  -3.874192592061468e+04   9.278498236970003e-01   2.819867846227887e+00  -1.218801270673210e+00  -3.170596828572946e-05
2017-01-01T10:24:50.000  -1.670230867388147e+04  -3.875410365764166e+04   9.275324103557284e-01   2.820754554926074e+00  -1.216746026987317e+00  -3.177670167055277e-05
2017-01-01T10:25:00.000  -1.667409670128294e+04  -3.876626083889877e+04   9.272142896323275e-01   2.821639766871210e+00  -1.214690139398856e+00  -3.184744529540158e-05
2017-01-01T10:25:10.000  -1.664587588434376e+04  -3.877839745793975e+04   9.268954614249895e-01   2.822523481596210e+00  -1.212633608998433e+00  -3.191819911678898e-05
2017-01-01T10:25:20.000  -1.661764623771713e+04  -3.879051350847894e+04   9.265759256283068e-01   2.823405698645678e+00  -1.210576436851287e+00  -3.198896309208056e-05
2017-01-01T10:25:30.000  -1.658940777615959e+04  -3.880260898419948e+04   9.262556821384300e-01   2.824286417561944e+00  -1.208518624030185e+00  -3.205973717837697e-05
2017-01-01T10:25:40.000  -1.656116051436055e+04  -3.881468387882604e+04   9.259347308511268e-01   2.825165637890358e+00  -1.206460171602996e+00  -3.213052133293553e-05
2017-01-01T10:25:50.000  -1.653290446760256e+04  -3.882673818584231e+04   9.256130716692821e-01   2.826043359158720e+00  -1.204401080680811e+00  -3.220131551153431e-05
2017-01-01T10:26:00.000  -1.650463965110112e+04  -3.883877189877374e+04   9.252907044954019e-01   2.826919580897861e+00  -1.202341352369826e+00  -3.227211967010755e-05
2017-01-01T10:26:10.000  -1.647636608017489e+04  -3.885078501111425e+04   9.249676292335440e-01   2.827794302636320e+00  -1.200280987783756e+00  -3.234293376432593e-05
2017-01-01T10:26:20.000  -1.644808376979534e+04  -3.886277751652052e+04   9.246438457842374e-01   2.828667523914477e+00  -1.198219988011007e+00  -3.241375775070474e-05
2017-01-01T10:26:30.000  -1.641979273495821e+04  -3.887474940865125e+04   9.243193540486629e-01   2.829539244272864e+00  -1.196158354141753e+00  -3.248459158569339e-05
2017-01-01T10:26:40.000  -1.639149299059792e+04  -3.888670068120447e+04   9.239941539276885e-01   2.830409463254858e+00  -1.194096087261692e+00  -3.255543522588240e-05
2017-01-01T10:26:50.000  -1.636318455162023e+04  -3.889863132790170e+04   9.236682453222043e-01   2.831278180405560e+00  -1.192033188454432e+00  -3.262628862794225e-05
2017-01-01T10:27:00.000  -1.633486743291859e+04  -3.891054134248272e+04   9.233416281333447e-01   2.832145395271382e+00  -1.189969658802679e+00  -3.269715174856178e-05
2017-01-01T10:27:10.000  -1.630654164940795e+04  -3.892243071869107e+04   9.230143022628777e-01   2.833011107399015e+00  -1.187905499390703e+00  -3.276802454437107e-05
2017-01-01T10:27:20.000  -1.627820721604021e+04  -3.893429945026640e+04   9.226862676133479e-01   2.833875316334860e+00  -1.185840711305457e+00  -3.283890697188134e-05
2017-01-01T10:27:30.000  -1.624986414783805e+04  -3.894614753093177e+04   9.223575240885126e-01   2.834738021624103e+00  -1.183775295639057e+00  -3.290979898742180e-05
2017-01-01T10:27:40.000  -1.622151245980867e+04  -3.895797495442920e+04   9.220280715923228e-01   2.835599222813310e+00  -1.181709253482481e+00  -3.298070054734767e-05
2017-01-01T10:27:50.000  -1.619315216731816e+04  -3.896978171436574e+04   9.216979100333341e-01   2.836458919439214e+00  -1.179642585952855e+00  -3.305161160712602e-05
2017-01-01T10:28:00.000  -1.616478328563798e+04  -3.898156780440039e+04   9.213670393193772e-01   2.837317111042329e+00  -1.177575294160409e+00  -3.312253212244775e-05
2017-01-01T10:28:10.000  -1.613640583011346e+04  -3.899333321817440e+04   9.210354593595336e-01   2.838173797161870e+00  -1.175507379220750e+00  -3.319346204881418e-05
2017-01-01T10:28:20.000  -1.610801981551120e+04  -3.900507794958208e+04   9.207031700565134e-01   2.839028977355475e+00  -1.173438842207307e+00  -3.326440134314731e-05
2017-01-01T10:28:30.000  -1.607962525666997e+04  -3.901680199250050e+04   9.203701713142535e-01   2.839882651179522e+00  -1.171369684198766e+00  -3.333534996218382e-05
2017-01-01T10:28:40.000  -1.605122216835334e+04  -3.902850534085107e+04   9.200364630362057e-01   2.840734818193616e+00  -1.169299906268329e+00  -3.340630786283605e-05
2017-01-01T10:28:50.000  -1.602281056561639e+04  -3.904018798844518e+04   9.197020451295640e-01   2.841585477949342e+00  -1.167229509510435e+00  -3.347727500129490e-05
2017-01-01T10:29:00.000  -1.599439046353375e+04  -3.905184992909962e+04   9.193669175021563e-01   2.842434629998679e+00  -1.165158495020946e+00  -3.354825133369032e-05
2017-01-01T10:29:10.000  -1.596596187719921e+04  -3.906349115663543e+04   9.190310800624031e-01   2.843282273893912e+00  -1.163086863897115e+00  -3.361923681609875e-05
2017-01-01T10:29:20.000  -1.593752482200008e+04  -3.907511166476880e+04   9.186945327226427e-01   2.844128409179681e+00  -1.161014617257579e+00  -3.369023140384119e-05
2017-01-01T10:29:30.000  -1.590907931324803e+04  -3.908671144725908e+04   9.183572753946945e-01   2.844973035403774e+00  -1.158941756215462e+00  -3.376123505242137e-05
2017-01-01T10:29:40.000  -1.588062536632432e+04  -3.909829049785029e+04   9.180193079915907e-01   2.845816152112846e+00  -1.156868281888954e+00  -3.383224771715767e-05
2017-01-01T10:29:50.000  -1.585216299603779e+04  -3.910984881053228e+04   9.176806304199600e-01   2.846657758871464e+00  -1.154794195354526e+00  -3.390326935479908e-05
2017-01-01T10:30:00.000  -1.582369221726682e+04  -3.912138637927934e+04   9.173412425876386e-01   2.847497855243045e+00  -1.152719497693715e+00  -3.397429992191021e-05
2017-01-01T10:30:10.000  -1.579521304481430e+04  -3.913290319810962e+04   9.170011444019652e-01   2.848336440794199e+00  -1.150644189982553e+00  -3.404533937523729e-05
2017-01-01T10:30:20.000  -1.576672549377533e+04  -3.914439926093312e+04   9.166603357740848e-01   2.849173515083658e+00  -1.148568273318360e+00  -3.411638767078117e-05
2017-01-01T10:30:30.000  -1.573822957926457e+04  -3.915587456166535e+04   9.163188166157811e-01   2.850009077670556e+00  -1.146491748799880e+00  -3.418744476448681e-05
2017-01-01T10:30:40.000  -1.570972531641576e+04  -3.916732909422633e+04   9.159765868394377e-01   2.850843128114340e+00  -1.144414617527241e+00  -3.425851061224176e-05
2017-01-01T10:30:50.000  -1.568121272065688e+04  -3.917876285243296e+04   9.156336463614217e-01   2.851675665966955e+00  -1.142336880622010e+00  -3.432958516919489e-05
2017-01-01T10:31:00.000  -1.565269180733996e+04  -3.919017583014497e+04   9.152899950975634e-01   2.852506690783453e+00  -1.140258539200215e+00  -3.440066839067537e-05
2017-01-01T10:31:10.000  -1.562416259188951e+04  -3.920156802120601e+04   9.149456329649603e-01   2.853336202117717e+00  -1.138179594383163e+00  -3.447176023182234e-05
2017-01-01T10:31:20.000  -1.559562508914798e+04  -3.921293941970505e+04   9.146005598740753e-01   2.854164199541485e+00  -1.136100047249740e+00  -3.454286064921971e-05
2017-01-01T10:31:30.000  -1.556707931403188e+04  -3.922429001971414e+04   9.142547757366523e-01   2.854990682625258e+00  -1.134019898884226e+00  -3.461396959925619e-05
2017-01-01T10:31:40.000  -1.553852528136248e+04  -3.923561981535632e+04   9.139082804636802e-01   2.855815650943251e+00  -1.131939150363957e+00  -3.468508703855043e-05
2017-01-01T10:31:50.000  -1.550996300632080e+04  -3.924692880062237e+04   9.135610739708455e-01   2.856639104060036e+00  -1.129857802792481e+00  -3.475621292280432e-05
2017-01-01T10:32:00.000  -1.548139250407230e+04  -3.925821696952232e+04   9.132131561740461e-01   2.857461041541593e+00  -1.127775857272208e+00  -3.482734720775255e-05
2017-01-01T10:32:10.000  -1.545281378985056e+04  -3.926948431605173e+04   9.128645269903876e-01   2.858281462952834e+00  -1.125693314910508e+00  -3.489848984894808e-05
2017-01-01T10:32:20.000  -1.542422687893512e+04  -3.928073083420206e+04   9.125151863379627e-01   2.859100367858377e+00  -1.123610176818094e+00  -3.496964080183731e-05
